IRIDIUM 159             
1 43578U 18061K   24075.51910328  .00000385  00000+0  13045-3 0  9991
2 43578  86.3970  40.9115 0002233  82.1182 278.0268 14.34217111295323
IRIDIUM 180             
1 43922U 19002A   24075.23951872  .00000365  00000+0  12323-3 0  9994
2 43922  86.4013 337.9511 0002120  86.5798 273.5641 14.34216344270932
IRIDIUM 176             
1 43923U 19002B   24075.45803780  .00000485  00000+0  73105-4 0  9992
2 43923  86.6138 337.8881 0002074  91.5611 268.5844 14.72195247278050
IRIDIUM 168             
1 43924U 19002C   24075.23318147  .00000212  00000+0  68563-4 0  9997
2 43924  86.4015 338.0080 0002122  84.4801 275.6637 14.34217098270871
IRIDIUM 173             
1 43925U 19002D   24074.80187595  .00000616  00000+0  21292-3 0  9996
2 43925  86.4009 338.1110 0002108  82.9381 277.2054 14.34215730270793
IRIDIUM 169             
1 43926U 19002E   24074.87724186  .00000508  00000+0  15946-3 0  9996
2 43926  86.4282   9.6673 0003145 136.7450 223.3995 14.38622293271717
IRIDIUM 172             
1 43927U 19002F   24074.79554349  .00000096  00000+0  27085-4 0  9990
2 43927  86.4014 338.1190 0002172  82.8440 277.3002 14.34217512270801
IRIDIUM 175             
1 43928U 19002G   24075.65619362  .00001171  00000+0  18199-3 0  9994
2 43928  86.1508 316.2376 0003519  71.8650 288.2949 14.72203158278078
